COMMENT,ORIGINATOR,NORAD_CAT_ID,OBJECT_NAME,OBJECT_TYPE,CLASSIFICATION_TYPE,INTLDES,EPOCH,EPOCH_MICROSECONDS,MEAN_MOTION,ECCENTRICITY,INCLINATION,RA_OF_ASC_NODE,ARG_OF_PERICENTER,MEAN_ANOMALY,EPHEMERIS_TYPE,ELEMENT_SET_NO,REV_AT_EPOCH,BSTAR,MEAN_MOTION_DOT,MEAN_MOTION_DDOT,FILE,TLE_LINE0,TLE_LINE1,TLE_LINE2,OBJECT_ID,OBJECT_NUMBER,SEMIMAJOR_AXIS,PERIOD,APOGEE,PERIGEE,DECAYED
"GENERATED VIA SPACETRACK.ORG API","18 SPCS","55100","SPACEBEE-158","PAYLOAD","U","23001CV","2024-02-25 04:02:05","322624","15.34670453","0.0011543","97.4392","120.806","189.0318","171.0719","0","999","6368","0.0013895","0.00046934","0","4197912","0 SPACEBEE-158","1 55100U 23001CV  24056.16811716  .00046934  00000-0  13895-2 0  9999","2 55100  97.4392 120.8060 0011543 189.0318 171.0719 15.34670453 63685","2023-001CV","55100","6840.037","93.831","469.797","454.006","0"
"GENERATED VIA SPACETRACK.ORG API","18 SPCS","55100","SPACEBEE-158","PAYLOAD","U","23001CV","2024-02-25 10:17:39","289344","15.34690566","0.0011566","97.439","121.0689","188.0265","172.0795","0","999","6372","0.0013014","0.00043964","0","4198379","0 SPACEBEE-158","1 55100U 23001CV  24056.42892696  .00043964  00000-0  13014-2 0  9997","2 55100  97.4390 121.0689 0011566 188.0265 172.0795 15.34690566 63725","2023-001CV","55100","6839.977","93.830","469.753","453.931","0"
"GENERATED VIA SPACETRACK.ORG API","18 SPCS","55100","SPACEBEE-158","PAYLOAD","U","23001CV","2024-02-25 16:33:12","856032","15.34719568","0.0011582","97.439","121.3319","187.2908","172.8168","0","999","6376","0.0014509","0.00049102","0","4198683","0 SPACEBEE-158","1 55100U 23001CV  24056.68973213  .00049102  00000-0  14509-2 0  9990","2 55100  97.4390 121.3319 0011582 187.2908 172.8168 15.34719568 63761","2023-001CV","55100","6839.891","93.828","469.678","453.834","0"
"GENERATED VIA SPACETRACK.ORG API","18 SPCS","55100","SPACEBEE-158","PAYLOAD","U","23001CV","2024-02-26 03:30:25","775424","15.34761795","0.0011582","97.4386","121.7924","185.9397","174.171","0","999","6383","0.001456","0.00049343","0","4199244","0 SPACEBEE-158","1 55100U 23001CV  24057.14613166  .00049343  00000-0  14560-2 0  9994","2 55100  97.4386 121.7924 0011582 185.9397 174.1710 15.34761795 63834","2023-001CV","55100","6839.765","93.826","469.552","453.708","0"
"GENERATED VIA SPACETRACK.ORG API","18 SPCS","55100","SPACEBEE-158","PAYLOAD","U","23001CV","2024-02-26 17:35:23","541504","15.34817965","0.0011644","97.4385","122.384","183.899","176.2164","0","999","6392","0.0014124","0.00047941","0","4199376","0 SPACEBEE-158","1 55100U 23001CV  24057.73291136  .00047941  00000-0  14124-2 0  9996","2 55100  97.4385 122.3840 0011644 183.8990 176.2164 15.34817965 63929","2023-001CV","55100","6839.598","93.822","469.427","453.499","0"
"GENERATED VIA SPACETRACK.ORG API","18 SPCS","55100","SPACEBEE-158","PAYLOAD","U","23001CV","2024-02-26 17:35:23","541504","15.34817965","0.0011644","97.4385","122.384","183.899","176.2164","0","999","6392","0.0014124","0.00047941","0","4199532","0 SPACEBEE-158","1 55100U 23001CV  24057.73291136  .00047941  00000-0  14124-2 0  9996","2 55100  97.4385 122.3840 0011644 183.8990 176.2164 15.34817965 63929","2023-001CV","55100","6839.598","93.822","469.427","453.499","0"
"GENERATED VIA SPACETRACK.ORG API","18 SPCS","55100","SPACEBEE-158","PAYLOAD","U","23001CV","2024-02-27 02:58:41","155680","15.34849452","0.0011648","97.4383","122.7784","182.5248","177.5938","0","999","6398","0.001304","0.00044278","0","4200159","0 SPACEBEE-158","1 55100U 23001CV  24058.12408745  .00044278  00000-0  13040-2 0  9992","2 55100  97.4383 122.7784 0011648 182.5248 177.5938 15.34849452 63989","2023-001CV","55100","6839.505","93.820","469.336","453.403","0"
"GENERATED VIA SPACETRACK.ORG API","18 SPCS","55100","SPACEBEE-158","PAYLOAD","U","23001CV","2024-02-27 15:29:43","455840","15.34894296","0.0011696","97.4382","123.3045","180.5648","179.5584","0","999","6406","0.0012752","0.00043356","0","4200342","0 SPACEBEE-158","1 55100U 23001CV  24058.64564185  .00043356  00000-0  12752-2 0  9995","2 55100  97.4382 123.3045 0011696 180.5648 179.5584 15.34894296 64065","2023-001CV","55100","6839.371","93.818","469.236","453.237","0"
"GENERATED VIA SPACETRACK.ORG API","18 SPCS","55100","SPACEBEE-158","PAYLOAD","U","23001CV","2024-02-27 21:45:14","152320","15.34911034","0.0011706","97.4381","123.5674","179.6306","180.4948","0","999","6410","0.001142","0.00038817","0","4200457","0 SPACEBEE-158","1 55100U 23001CV  24058.90641380  .00038817  00000-0  11420-2 0  9994","2 55100  97.4381 123.5674 0011706 179.6306 180.4948 15.34911034 64106","2023-001CV","55100","6839.322","93.817","469.193","453.181","0"
"GENERATED VIA SPACETRACK.ORG API","18 SPCS","55100","SPACEBEE-158","PAYLOAD","U","23001CV","2024-02-28 10:16:14","655360","15.34951809","0.0011732","97.4379","124.0935","177.7699","182.3599","0","999","6418","0.0011112","0.00037812","0","4201083","0 SPACEBEE-158","1 55100U 23001CV  24059.42794740  .00037812  00000-0  11112-2 0  9993","2 55100  97.4379 124.0935 0011732 177.7699 182.3599 15.34951809 64187","2023-001CV","55100","6839.201","93.814","469.089","453.042","0"
"GENERATED VIA SPACETRACK.ORG API","18 SPCS","55100","SPACEBEE-158","PAYLOAD","U","23001CV","2024-02-28 16:31:44","512896","15.34968473","0.0011752","97.4377","124.3565","176.8778","183.2541","0","999","6422","0.00098955","0.00033664","0","4201262","0 SPACEBEE-158","1 55100U 23001CV  24059.68870964  .00033664  00000-0  98955-3 0  9996","2 55100  97.4377 124.3565 0011752 176.8778 183.2541 15.34968473 64224","2023-001CV","55100","6839.151","93.813","469.054","452.979","0"
"GENERATED VIA SPACETRACK.ORG API","18 SPCS","55100","SPACEBEE-158","PAYLOAD","U","23001CV","2024-02-28 16:31:44","512896","15.34968473","0.0011752","97.4377","124.3565","176.8778","183.2541","0","999","6422","0.00098955","0.00033664","0","4201365","0 SPACEBEE-158","1 55100U 23001CV  24059.68870964  .00033664  00000-0  98955-3 0  9996","2 55100  97.4377 124.3565 0011752 176.8778 183.2541 15.34968473 64224","2023-001CV","55100","6839.151","93.813","469.054","452.979","0"
"GENERATED VIA SPACETRACK.ORG API","18 SPCS","55100","SPACEBEE-158","PAYLOAD","U","23001CV","2024-02-29 03:28:51","135456","15.35000016","0.0011767","97.4377","124.8168","175.6162","184.5187","0","999","6429","0.00103","0.00035085","0","4201938","0 SPACEBEE-158","1 55100U 23001CV  24060.14503629  .00035085  00000-0  10300-2 0  9996","2 55100  97.4377 124.8168 0011767 175.6162 184.5187 15.35000016 64296","2023-001CV","55100","6839.057","93.811","468.970","452.875","0"
"GENERATED VIA SPACETRACK.ORG API","18 SPCS","55100","SPACEBEE-158","PAYLOAD","U","23001CV","2024-02-29 17:33:41","351904","15.35039075","0.0011809","97.4375","125.4087","173.6054","186.5342","0","999","6438","0.00099161","0.00033811","0","4202140","0 SPACEBEE-158","1 55100U 23001CV  24060.73172861  .00033811  00000-0  99161-3 0  9999","2 55100  97.4375 125.4087 0011809 173.6054 186.5342 15.35039075 64388","2023-001CV","55100","6838.941","93.809","468.883","452.730","0"
"GENERATED VIA SPACETRACK.ORG API","18 SPCS","55100","SPACEBEE-158","PAYLOAD","U","23001CV","2024-02-29 17:33:41","351904","15.35039075","0.0011809","97.4375","125.4087","173.6054","186.5342","0","999","6438","0.00099161","0.00033811","0","4202276","0 SPACEBEE-158","1 55100U 23001CV  24060.73172861  .00033811  00000-0  99161-3 0  9999","2 55100  97.4375 125.4087 0011809 173.6054 186.5342 15.35039075 64388","2023-001CV","55100","6838.941","93.809","468.883","452.730","0"
"GENERATED VIA SPACETRACK.ORG API","18 SPCS","55100","SPACEBEE-158","PAYLOAD","U","23001CV","2024-03-01 02:56:54","62880","15.35068728","0.0011814","97.4374","125.8033","172.2845","187.8582","0","999","6444","0.001081","0.00036916","0","4202819","0 SPACEBEE-158","1 55100U 23001CV  24061.12284795  .00036916  00000-0  10810-2 0  9995","2 55100  97.4374 125.8033 0011814 172.2845 187.8582 15.35068728 64445","2023-001CV","55100","6838.853","93.807","468.798","452.639","0"
"GENERATED VIA SPACETRACK.ORG API","18 SPCS","55100","SPACEBEE-158","PAYLOAD","U","23001CV","2024-03-01 17:01:41","892096","15.35115862","0.001188","97.4376","126.3951","170.1453","190.0025","0","999","6453","0.0011832","0.00040494","0","4203063","0 SPACEBEE-158","1 55100U 23001CV  24061.70951264  .00040494  00000-0  11832-2 0  9992","2 55100  97.4376 126.3951 0011880 170.1453 190.0025 15.35115862 64537","2023-001CV","55100","6838.713","93.804","468.703","452.454","0"
"GENERATED VIA SPACETRACK.ORG API","18 SPCS","55100","SPACEBEE-158","PAYLOAD","U","23001CV","2024-03-01 17:01:41","892096","15.35115862","0.001188","97.4376","126.3951","170.1453","190.0025","0","999","6453","0.0011832","0.00040494","0","4203428","0 SPACEBEE-158","1 55100U 23001CV  24061.70951264  .00040494  00000-0  11832-2 0  9992","2 55100  97.4376 126.3951 0011880 170.1453 190.0025 15.35115862 64537","2023-001CV","55100","6838.713","93.804","468.703","452.454","0"
"GENERATED VIA SPACETRACK.ORG API","18 SPCS","55100","SPACEBEE-158","PAYLOAD","U","23001CV","2024-03-02 10:14:11","483520","15.35174814","0.0011876","97.4375","127.1187","167.6274","192.5263","0","999","6464","0.0011719","0.00040181","0","4204354","0 SPACEBEE-158","1 55100U 23001CV  24062.42652180  .00040181  00000-0  11719-2 0  9994","2 55100  97.4375 127.1187 0011876 167.6274 192.5263 15.35174814 64648","2023-001CV","55100","6838.538","93.800","468.525","452.282","0"
"GENERATED VIA SPACETRACK.ORG API","18 SPCS","55100","SPACEBEE-158","PAYLOAD","U","23001CV","2024-03-02 16:29:38","18976","15.35196549","0.001179","97.4377","127.3816","166.6722","193.4835","0","999","6468","0.0011276","0.00038677","0","4204905","0 SPACEBEE-158","1 55100U 23001CV  24062.68724559  .00038677  00000-0  11276-2 0  9997","2 55100  97.4377 127.3816 0011790 166.6722 193.4835 15.35196549 64681","2023-001CV","55100","6838.474","93.799","468.401","452.276","0"
